start=new Date('2023-06-05T00:00:00.000Z').valueOf();
sats=[{"COUNTRY_CODE":"US","OBJECT_TYPE":"PAYLOAD","PERIAPSIS":"546.582","ELEMENT_SET_NO":"999","OBJECT_NAME":"STARLINK-1634","FILE":"3924842","GP_ID":"233180291","TLE_LINE2":"2 46152  53.0541 167.4514 0000923  92.9243 267.1851 15.06397604153942","DECAY_DATE":null,"REF_FRAME":"TEME","RA_OF_ASC_NODE":"167.4514","INCLINATION":"53.0541","CENTER_NAME":"EARTH","SITE":"AFETR","REV_AT_EPOCH":"15394","NORAD_CAT_ID":"46152","PERIOD":"95.592","LAUNCH_DATE":"2020-08-18","MEAN_MOTION_DDOT":"0.0000000000000","BSTAR":"-0.00000354440000","ECCENTRICITY":"0.00009230","OBJECT_ID":"2020-057AM","MEAN_ELEMENT_THEORY":"SGP4","ARG_OF_PERICENTER":"92.9243","MEAN_ANOMALY":"267.1851","CLASSIFICATION_TYPE":"U","MEAN_MOTION":"15.06397604","SEMIMAJOR_AXIS":"6925.356","EPOCH":"2023-06-04T09:47:42.879552","APOAPSIS":"547.860","TLE_LINE1":"1 46152U 20057AM  23155.40813518 -.00000334  00000-0 -35444-5 0  9995","TIME_SYSTEM":"UTC","RCS_SIZE":"LARGE","MEAN_MOTION_DOT":"-0.00000334","EPHEMERIS_TYPE":"0"},{"REV_AT_EPOCH":"15421","NORAD_CAT_ID":"46153","PERIOD":"95.592","CENTER_NAME":"EARTH","SITE":"AFETR","GP_ID":"233179039","TLE_LINE2":"2 46153  53.0531 147.5962 0000968  82.7936 277.3163 15.06403137154212","REF_FRAME":"TEME","RA_OF_ASC_NODE":"147.5962","DECAY_DATE":null,"INCLINATION":"53.0531","OBJECT_TYPE":"PAYLOAD","COUNTRY_CODE":"US","ELEMENT_SET_NO":"999","PERIAPSIS":"546.534","OBJECT_NAME":"STARLINK-1636","FILE":"3924842","MEAN_MOTION_DOT":"0.00000618","RCS_SIZE":"LARGE","EPHEMERIS_TYPE":"0","APOAPSIS":"547.874","TIME_SYSTEM":"UTC","TLE_LINE1":"1 46153U 20057AN  23155.37774370  .00000618  00000-0  60374-4 0  9996","OBJECT_ID":"2020-057AN","MEAN_ELEMENT_THEORY":"SGP4","MEAN_ANOMALY":"277.3163","CLASSIFICATION_TYPE":"U","ARG_OF_PERICENTER":"82.7936","EPOCH":"2023-06-04T09:03:57.055680","SEMIMAJOR_AXIS":"6925.339","MEAN_MOTION":"15.06403137","MEAN_MOTION_DDOT":"0.0000000000000","LAUNCH_DATE":"2020-08-18","ECCENTRICITY":"0.00009680","BSTAR":"0.00006037400000"},{"INCLINATION":"53.0540","RA_OF_ASC_NODE":"157.5511","REF_FRAME":"TEME","DECAY_DATE":null,"TLE_LINE2":"2 46154  53.0540 157.5511 0001061  77.3545 282.7562 15.06402466154087","GP_ID":"233179789","FILE":"3924842","OBJECT_NAME":"STARLINK-1642","ELEMENT_SET_NO":"999","PERIAPSIS":"546.471","OBJECT_TYPE":"PAYLOAD","COUNTRY_CODE":"US","PERIOD":"95.592","NORAD_CAT_ID":"46154","REV_AT_EPOCH":"15408","SITE":"AFETR","CENTER_NAME":"EARTH","SEMIMAJOR_AXIS":"6925.341","EPOCH":"2023-06-04T09:18:33.156000","MEAN_MOTION":"15.06402466","CLASSIFICATION_TYPE":"U","MEAN_ANOMALY":"282.7562","ARG_OF_PERICENTER":"77.3545","MEAN_ELEMENT_THEORY":"SGP4","OBJECT_ID":"2020-057AP","ECCENTRICITY":"0.00010610","BSTAR":"0.00001651300000","MEAN_MOTION_DDOT":"0.0000000000000","LAUNCH_DATE":"2020-08-18","EPHEMERIS_TYPE":"0","MEAN_MOTION_DOT":"-0.00000035","RCS_SIZE":"LARGE","TIME_SYSTEM":"UTC","TLE_LINE1":"1 46154U 20057AP  23155.38788375 -.00000035  00000-0  16513-4 0  9998","APOAPSIS":"547.941"},{"RCS_SIZE":"LARGE","MEAN_MOTION_DOT":"0.00000934","EPHEMERIS_TYPE":"0","APOAPSIS":"548.012","TIME_SYSTEM":"UTC","TLE_LINE1":"1 46155U 20057AQ  23155.21371482  .00000934  00000-0  81575-4 0  9995","OBJECT_ID":"2020-057AQ","MEAN_ELEMENT_THEORY":"SGP4","ARG_OF_PERICENTER":"92.2810","CLASSIFICATION_TYPE":"U","MEAN_ANOMALY":"267.8313","MEAN_MOTION":"15.06403533","SEMIMAJOR_AXIS":"6925.338","EPOCH":"2023-06-04T05:07:44.960448","LAUNCH_DATE":"2020-08-18","MEAN_MOTION_DDOT":"0.0000000000000","BSTAR":"0.00008157500000","ECCENTRICITY":"0.00011690","REV_AT_EPOCH":"15571","NORAD_CAT_ID":"46155","PERIOD":"95.592","CENTER_NAME":"EARTH","SITE":"AFETR","GP_ID":"233180041","TLE_LINE2":"2 46155  53.0531 128.3298 0001169  92.2810 267.8313 15.06403533155711","DECAY_DATE":null,"REF_FRAME":"TEME","RA_OF_ASC_NODE":"128.3298","INCLINATION":"53.0531","COUNTRY_CODE":"US","OBJECT_TYPE":"PAYLOAD","PERIAPSIS":"546.393","ELEMENT_SET_NO":"999","OBJECT_NAME":"STARLINK-1667","FILE":"3924842"},{"RCS_SIZE":"LARGE","MEAN_MOTION_DOT":"0.00001027","EPHEMERIS_TYPE":"0","TIME_SYSTEM":"UTC","TLE_LINE1":"1 46156U 20057AR  23155.93432323  .00001027  00000-0  87816-4 0  9995","APOAPSIS":"547.830","ARG_OF_PERICENTER":"90.7436","MEAN_ANOMALY":"269.3651","CLASSIFICATION_TYPE":"U","MEAN_MOTION":"15.06390794","EPOCH":"2023-06-04T22:25:25.527072","SEMIMAJOR_AXIS":"6925.377","OBJECT_ID":"2020-057AR","MEAN_ELEMENT_THEORY":"SGP4","ECCENTRICITY":"0.00008500","BSTAR":"0.00008781600000","LAUNCH_DATE":"2020-08-18","MEAN_MOTION_DDOT":"0.0000000000000","PERIOD":"95.593","REV_AT_EPOCH":"15555","NORAD_CAT_ID":"46156","CENTER_NAME":"EARTH","SITE":"AFETR","DECAY_DATE":null,"RA_OF_ASC_NODE":"145.0954","REF_FRAME":"TEME","INCLINATION":"53.0537","GP_ID":"233213631","TLE_LINE2":"2 46156  53.0537 145.0954 0000850  90.7436 269.3651 15.06390794155554","OBJECT_NAME":"STARLINK-1545","FILE":"3925173","COUNTRY_CODE":"US","OBJECT_TYPE":"PAYLOAD","PERIAPSIS":"546.653","ELEMENT_SET_NO":"999"},{"ELEMENT_SET_NO":"999","PERIAPSIS":"546.427","OBJECT_TYPE":"PAYLOAD","COUNTRY_CODE":"US","FILE":"3925173","OBJECT_NAME":"STARLINK-1587","TLE_LINE2":"2 46157  53.0535 125.1520 0001185  94.7648 265.3477 15.06388956154583","GP_ID":"233213881","INCLINATION":"53.0535","RA_OF_ASC_NODE":"125.1520","REF_FRAME":"TEME","DECAY_DATE":null,"SITE":"AFETR","CENTER_NAME":"EARTH","NORAD_CAT_ID":"46157","REV_AT_EPOCH":"15458","PERIOD":"95.593","MEAN_MOTION_DDOT":"0.0000000000000","LAUNCH_DATE":"2020-08-18","BSTAR":"0.00009198100000","ECCENTRICITY":"0.00011850","MEAN_ELEMENT_THEORY":"SGP4","OBJECT_ID":"2020-057AS","SEMIMAJOR_AXIS":"6925.382","EPOCH":"2023-06-04T22:06:51.258240","MEAN_MOTION":"15.06388956","MEAN_ANOMALY":"265.3477","CLASSIFICATION_TYPE":"U","ARG_OF_PERICENTER":"94.7648","APOAPSIS":"548.068","TLE_LINE1":"1 46157U 20057AS  23155.92142660  .00001089  00000-0  91981-4 0  9993","TIME_SYSTEM":"UTC","EPHEMERIS_TYPE":"0","MEAN_MOTION_DOT":"0.00001089","RCS_SIZE":"LARGE"},{"TIME_SYSTEM":"UTC","TLE_LINE1":"1 46158U 20057AT  23155.91774155  .00000382  00000-0  44538-4 0  9994","APOAPSIS":"548.038","RCS_SIZE":"LARGE","MEAN_MOTION_DOT":"0.00000382","EPHEMERIS_TYPE":"0","BSTAR":"0.00004453800000","ECCENTRICITY":"0.00011410","LAUNCH_DATE":"2020-08-18","MEAN_MOTION_DDOT":"0.0000000000000","ARG_OF_PERICENTER":"90.5454","CLASSIFICATION_TYPE":"U","MEAN_ANOMALY":"269.5665","MEAN_MOTION":"15.06388736","EPOCH":"2023-06-04T22:01:32.869920","SEMIMAJOR_AXIS":"6925.383","OBJECT_ID":"2020-057AT","MEAN_ELEMENT_THEORY":"SGP4","CENTER_NAME":"EARTH","SITE":"AFETR","PERIOD":"95.593","REV_AT_EPOCH":"15584","NORAD_CAT_ID":"46158","OBJECT_NAME":"STARLINK-1589","FILE":"3925173","OBJECT_TYPE":"PAYLOAD","COUNTRY_CODE":"US","PERIAPSIS":"546.458","ELEMENT_SET_NO":"999","DECAY_DATE":null,"RA_OF_ASC_NODE":"125.1715","REF_FRAME":"TEME","INCLINATION":"53.0536","GP_ID":"233214633","TLE_LINE2":"2 46158  53.0536 125.1715 0001141  90.5454 269.5665 15.06388736155843"},{"PERIOD":"95.593","REV_AT_EPOCH":"15525","NORAD_CAT_ID":"46159","CENTER_NAME":"EARTH","SITE":"AFETR","DECAY_DATE":null,"REF_FRAME":"TEME","RA_OF_ASC_NODE":"165.8838","INCLINATION":"53.0547","GP_ID":"233215384","TLE_LINE2":"2 46159  53.0547 165.8838 0001172  92.5196 267.5927 15.06390878155256","OBJECT_NAME":"STARLINK-1595","FILE":"3925173","COUNTRY_CODE":"US","OBJECT_TYPE":"PAYLOAD","PERIAPSIS":"546.430","ELEMENT_SET_NO":"999","RCS_SIZE":"LARGE","MEAN_MOTION_DOT":"0.00000169","EPHEMERIS_TYPE":"0","TIME_SYSTEM":"UTC","TLE_LINE1":"1 46159U 20057AU  23155.75925900  .00000169  00000-0  30245-4 0  9996","APOAPSIS":"548.053","ARG_OF_PERICENTER":"92.5196","CLASSIFICATION_TYPE":"U","MEAN_ANOMALY":"267.5927","MEAN_MOTION":"15.06390878","EPOCH":"2023-06-04T18:13:19.977600","SEMIMAJOR_AXIS":"6925.377","OBJECT_ID":"2020-057AU","MEAN_ELEMENT_THEORY":"SGP4","ECCENTRICITY":"0.00011720","BSTAR":"0.00003024500000","LAUNCH_DATE":"2020-08-18","MEAN_MOTION_DDOT":"0.0000000000000"},{"INCLINATION":"53.0532","DECAY_DATE":null,"REF_FRAME":"TEME","RA_OF_ASC_NODE":"148.0061","TLE_LINE2":"2 46160  53.0532 148.0061 0001151  85.8031 274.3090 15.06402678155454","GP_ID":"233180292","FILE":"3924842","OBJECT_NAME":"STARLINK-1598","PERIAPSIS":"546.408","ELEMENT_SET_NO":"999","COUNTRY_CODE":"US","OBJECT_TYPE":"PAYLOAD","PERIOD":"95.592","NORAD_CAT_ID":"46160","REV_AT_EPOCH":"15545","SITE":"AFETR","CENTER_NAME":"EARTH","MEAN_MOTION":"15.06402678","EPOCH":"2023-06-04T06:51:15.406272","SEMIMAJOR_AXIS":"6925.340","ARG_OF_PERICENTER":"85.8031","MEAN_ANOMALY":"274.3090","CLASSIFICATION_TYPE":"U","MEAN_ELEMENT_THEORY":"SGP4","OBJECT_ID":"2020-057AV","BSTAR":"0.00005940900000","ECCENTRICITY":"0.00011510","LAUNCH_DATE":"2020-08-18","MEAN_MOTION_DDOT":"0.0000000000000","EPHEMERIS_TYPE":"0","RCS_SIZE":"LARGE","MEAN_MOTION_DOT":"0.00000604","TIME_SYSTEM":"UTC","TLE_LINE1":"1 46160U 20057AV  23155.28559498  .00000604  00000-0  59409-4 0  9998","APOAPSIS":"548.002"},{"TIME_SYSTEM":"UTC","TLE_LINE1":"1 46161U 20057AW  23155.26348064 -.00000538  00000-0 -17258-4 0  9996","APOAPSIS":"547.950","RCS_SIZE":"LARGE","MEAN_MOTION_DOT":"-0.00000538","EPHEMERIS_TYPE":"0","ECCENTRICITY":"0.00010720","BSTAR":"-0.00001725800000","LAUNCH_DATE":"2020-08-18","MEAN_MOTION_DDOT":"0.0000000000000","ARG_OF_PERICENTER":"83.7447","CLASSIFICATION_TYPE":"U","MEAN_ANOMALY":"276.3664","MEAN_MOTION":"15.06401980","SEMIMAJOR_AXIS":"6925.342","EPOCH":"2023-06-04T06:19:24.727296","OBJECT_ID":"2020-057AW","MEAN_ELEMENT_THEORY":"SGP4","CENTER_NAME":"EARTH","SITE":"AFETR","PERIOD":"95.592","REV_AT_EPOCH":"15545","NORAD_CAT_ID":"46161","OBJECT_NAME":"STARLINK-1600","FILE":"3924842","OBJECT_TYPE":"PAYLOAD","COUNTRY_CODE":"US","PERIAPSIS":"546.465","ELEMENT_SET_NO":"999","DECAY_DATE":null,"REF_FRAME":"TEME","RA_OF_ASC_NODE":"148.1082","INCLINATION":"53.0539","GP_ID":"233179040","TLE_LINE2":"2 46161  53.0539 148.1082 0001072  83.7447 276.3664 15.06401980155450"}];
